{
  "name": "SATGUS",
  "line1": "1 62713U 25009DJ  25318.20716321  .00010759  00000+0  92399-3 0  9992",
  "line2": "2 62713  97.7242  36.6417 0002627 124.9652 235.1817 14.97627784 45343",
  "fetched_at": "2025-11-15T00:18:08.030442+00:00"
}